PANDORA
1 99152U 80229J   26013.88819444  .00000000  00000-0  37770-3 0    05
2 99152  97.7992  15.0192 0003777 279.1462  16.3661 14.87706772    06
